[{"OBJECT_NAME":"STARLINK-6319","OBJECT_ID":"2023-065AF","EPOCH":"2026-03-09T22:00:01.999584","MEAN_MOTION":15.13025016,"ECCENTRICITY":0.0001086,"INCLINATION":43.0011,"RA_OF_ASC_NODE":196.1131,"ARG_OF_PERICENTER":291.6779,"MEAN_ANOMALY":250.1201,"EPHEMERIS_TYPE":0,"CLASSIFICATION_TYPE":"U","NORAD_CAT_ID":56532,"ELEMENT_SET_NO":999,"REV_AT_EPOCH":573,"BSTAR":0.0045139528,"MEAN_MOTION_DOT":0.00081874,"MEAN_MOTION_DDOT":0},{"OBJECT_NAME":"LEMUR-2-KREMPEL-BRO1","OBJECT_ID":"2025-061G","EPOCH":"2026-03-09T22:19:45.751296","MEAN_MOTION":15.13773226,"ECCENTRICITY":0.0017497,"INCLINATION":97.5535,"RA_OF_ASC_NODE":45.5283,"ARG_OF_PERICENTER":227.946,"MEAN_ANOMALY":132.0284,"EPHEMERIS_TYPE":0,"CLASSIFICATION_TYPE":"U","NORAD_CAT_ID":63357,"ELEMENT_SET_NO":999,"REV_AT_EPOCH":5261,"BSTAR":0.00031891713,"MEAN_MOTION_DOT":5.707e-5,"MEAN_MOTION_DDOT":0}]
